ION SCV-004             
1 50993U 22002K   26068.68892644  .00006538  00000+0  23198-3 0  9998
2 50993  97.2961 128.2294 0007216   1.6783 358.4480 15.29369331230088
STARLINK-34353          
1 64278U 25120Y   26068.43282751  .00025439  00000+0  86822-3 0  9992
2 64278  53.1580 118.1088 0001239  75.5303 284.5835 15.30194970 43872
